{
  "norad_id": 37256,
  "name": "BEIDOU-2 IGSO-2",
  "history": [
    {
      "epoch": "2026-03-19T22:32:24.413280",
      "apogee_km": 35993.13838279096,
      "perigee_km": 35590.01279831034,
      "latitude_deg": -47.567198163171795,
      "longitude_deg": 11.760459200013429,
      "semi_major_axis_km": 42169.712590550655,
      "eccentricity": 0.0047798,
      "inclination_deg": 47.7058,
      "raan_deg": 272.9336,
      "arg_perigee_deg": 212.7858,
      "mean_anomaly_deg": 135.9365,
      "mean_motion_rev_day": 1.00254021
    }
  ]
}